STAR ONE D2             
1 49055U 21069A   26159.32989043  .00000000  00000+0  00000+0 0  9990
2 49055   0.0128 334.6169 0005608 102.1905 228.6130  1.00333647 17855
EUTELSAT QUANTUM        
1 49056U 21069B   26159.74567059  .00000142  00000+0  00000+0 0  9993
2 49056   0.0106 351.1991 0002314  82.4141 139.6617  1.00272368 17844
ZHONGXING-2E            
1 49062U 21071A   26159.86905925 -.00000275  00000+0  00000+0 0  9992
2 49062   0.0437 242.0519 0001744 239.7000 186.4230  1.00273651 17958
TJS-7                   
1 49115U 21077A   26159.82290632 -.00000108  00000+0  00000+0 0  9990
2 49115   0.4863  86.1738 0002427 335.3161  32.5069  1.00271046  9479
CHINASAT 9B             
1 49125U 21080A   26159.86291420 -.00000296  00000+0  00000+0 0  9993
2 49125   0.0334  95.9316 0001543   7.7708 205.6174  1.00272944 17561
SHIJIAN-21 (SJ-21)      
1 49330U 21094A   26159.77883291 -.00000332  00000+0  00000+0 0  9990
2 49330   5.0921  61.2284 0049597 168.0434  76.2756  1.00275369  5271
SES-17                  
1 49332U 21095A   26159.54432367 -.00000256  00000+0  00000+0 0  9997
2 49332   0.0256  35.0415 0001024  45.9352 304.8147  1.00269944 17762
SYRACUSE 4A             
1 49333U 21095B   26159.78055565  .00000151  00000+0  00000+0 0  9998
2 49333   0.0108 324.0816 0001474 112.1682 147.4221  1.00269704 17866
QZS-1R (MICHIBIKI-1R)   
1 49336U 21096A   26159.65389683 -.00000231  00000+0  00000+0 0  9999
2 49336  37.4439  79.7113 0754310 271.6148 275.6279  1.00258746 16923
ZHONGXING-1D            
1 49505U 21114A   26159.79725286 -.00000320  00000+0  00000+0 0  9995
2 49505   0.0382 243.0560 0000218 315.1085 116.2208  1.00273868 16734
STPSAT-6                
1 49817U 21118A   26159.39289771 -.00000030  00000+0  00000+0 0  9993
2 49817   0.2970  85.5058 0001402 256.1428 304.8941  1.00273463 16489
EXPRESS AMU-7           
1 50001U 21123A   26159.59002942 -.00000226  00000+0  00000+0 0  9998
2 50001   0.0147 283.9589 0000591  64.1783 266.2549  1.00272437 16454
EXPRESS AMU-3           
1 50002U 21123B   26159.00172558 -.00000306  00000+0  00000+0 0  9995
2 50002   0.0161 304.5274 0000423  62.7066 352.7755  1.00269595  6937
TIANLIAN 2-02           
1 50005U 21124A   26159.23496351  .00000002  00000+0  00000+0 0  9996
2 50005   0.7775  86.2654 0001142 219.8915 206.0380  1.00272697 16530
TURKSAT 5B              
1 50212U 21126A   26159.70852603  .00000162  00000+0  00000+0 0  9993
2 50212   0.0684 338.3176 0003642  18.0549 197.8023  1.00272360 16214
INMARSAT 6-F1           
1 50319U 21128A   26159.71676975 -.00000156  00000+0  00000+0 0  9994
2 50319   0.0152 289.1871 0000124 257.7540  51.9615  1.00272678 16176
SHIYAN-12 01 (SY-12 01) 
1 50321U 21129A   26159.77869146  .00000048  00000+0  00000+0 0  9997
2 50321   3.6517  80.0230 0003395 287.7814 236.8345  1.00038140 16415
SHIYAN-12 02 (SY-12 02) 
1 50322U 21129B   26159.71650975 -.00000189  00000+0  00000+0 0  9997
2 50322   3.6513  80.0304 0002714  55.4827 101.7644  1.00491567 16410
TJS-9                   
1 50574U 21135A   26159.79863953 -.00000282  00000+0  00000+0 0  9997
2 50574   0.0569 254.9815 0004759 154.0864 272.8408  1.00271815 16340
USA 324                 
1 51280U 22006A   26157.08795008 -.00000058  00000+0  00000+0 0  9996
2 51280   0.7690  83.2777 0002840 165.6787 110.1567  1.00289779 16021
GOES 18                 
1 51850U 22021A   26159.74437780  .00000113  00000+0  00000+0 0  9992
2 51850   0.0313 150.9367 0000496 342.8214 254.3470  1.00270960  6503
ZHONGXING-6D            
1 52255U 22038A   26159.93786008 -.00000337  00000+0  00000+0 0  9990
2 52255   0.0449  94.6952 0000169 275.0152 350.3002  1.00268958 15335
NILESAT 301             
1 52817U 22061A   26159.62750225 -.00000042  00000+0  00000+0 0  9991
2 52817   0.0573  29.1411 0005407  14.7863  71.9873  1.00271880 14651
CMS-02 (GSAT-24)        
1 52903U 22067A   26159.71659640 -.00000148  00000+0  00000+0 0  9999
2 52903   0.0390 139.3037 0001739 232.5409 226.2392  1.00270894 14523
MEASAT 3D               
1 52904U 22067B   26159.73770038 -.00000225  00000+0  00000+0 0  9993
2 52904   0.0440 306.7474 0000816 106.5444 200.9054  1.00271398 14567
SES-22                  
1 52933U 22071A   26159.74394448  .00000120  00000+0  00000+0 0  9991
2 52933   0.0243 288.0742 0001160 142.7064 315.1877  1.00273907  7431
WFOV (USA 332)          
1 52940U 22073A   26159.79508618 -.00000346  00000+0  00000+0 0  9993
2 52940   3.6883  78.6344 0002136 243.0349 341.0049  1.00271509 14280
TIANLIAN 2-03           
1 53100U 22078A   26159.77361936  .00000088  00000+0  00000+0 0  9997
2 53100   0.6509  76.8671 0001560 319.3738 150.0090  1.00272049 14467
SBIRS GEO-6 (USA 336)   
1 53355U 22092A   26159.21240211 -.00000279  00000+0  00000+0 0  9999
2 53355   3.2738 317.3290 0002019 116.8839  37.8722  1.00271179 14146
EUTELSAT KONNECT VHTS   
1 53765U 22110A   26159.77205936  .00000033  00000+0  00000+0 0  9998
2 53765   0.0628 104.2920 0002662 318.8807 114.6442  1.00269115  6758
ZHONGXING-1E            
1 53813U 22112A   26159.78748900 -.00000133  00000+0  00000+0 0  9990
2 53813   0.0462 107.3321 0000247 230.3649 284.3777  1.00270429 13761
